NAVSTAR 77 (USA 289)    
1 43873U 18109A   23360.57595799 -.00000016  00000+0  00000+0 0  9990
2 43873  55.2346 127.8892 0028022 191.1597 162.8657  2.00572351 36948
